{
    "links": {
        "self": "http://www.neowsapp.com/rest/v1/neo/3673836?api_key=iIulBulltgU6a56xZRHN4H3l9WmuAYTsLGpBGhQ2"
    },
    "id": "3673836",
    "neo_reference_id": "3673836",
    "name": "(2014 MY)",
    "designation": "2014 MY",
    "nasa_jpl_url": "http://ssd.jpl.nasa.gov/sbdb.cgi?sstr=3673836",
    "absolute_magnitude_h": 24.7,
    "estimated_diameter": {
        "kilometers": {
            "estimated_diameter_min": 0.0305179233,
            "estimated_diameter_max": 0.0682401509
        },
        "meters": {
            "estimated_diameter_min": 30.5179232594,
            "estimated_diameter_max": 68.2401509401
        },
        "miles": {
            "estimated_diameter_min": 0.0189629525,
            "estimated_diameter_max": 0.0424024508
        },
        "feet": {
            "estimated_diameter_min": 100.1244233463,
            "estimated_diameter_max": 223.8850168104
        }
    },
    "is_potentially_hazardous_asteroid": false,
    "close_approach_data": [
        {
            "close_approach_date": "2014-06-26",
            "close_approach_date_full": "2014-Jun-26 11:24",
            "epoch_date_close_approach": 1403781840000,
            "relative_velocity": {
                "kilometers_per_second": "9.5061392686",
                "kilometers_per_hour": "34222.1013669677",
                "miles_per_hour": "21264.2829299361"
            },
            "miss_distance": {
                "astronomical": "0.066714984",
                "lunar": "25.952128776",
                "kilometers": "9980419.50348408",
                "miles": "6201545.109997104"
            },
            "orbiting_body": "Earth"
        }
    ],
    "orbital_data": {
        "orbit_id": "8",
        "orbit_determination_date": "2017-04-06 08:40:02",
        "first_observation_date": "2014-06-18",
        "last_observation_date": "2014-07-25",
        "data_arc_in_days": 37,
        "observations_used": 37,
        "orbit_uncertainty": "8",
        "minimum_orbit_intersection": ".0601084",
        "jupiter_tisserand_invariant": "2.996",
        "epoch_osculation": "2456841.5",
        "eccentricity": ".6319331158459269",
        "semi_major_axis": "2.793482970385522",
        "inclination": "3.987439981653049",
        "ascending_node_longitude": "232.2987420261988",
        "orbital_period": "1705.36548534696",
        "perihelion_distance": "1.028188572847264",
        "perihelion_argument": "64.71654892701888",
        "aphelion_distance": "4.55877736792378",
        "perihelion_time": "2456852.828677635584",
        "mean_anomaly": "357.6085337812613",
        "mean_motion": ".2110984437607269",
        "equinox": "J2000",
        "orbit_class": {
            "orbit_class_type": "AMO",
            "orbit_class_description": "Near-Earth asteroid orbits similar to that of 1221 Amor",
            "orbit_class_range": "1.017 AU < q (perihelion) < 1.3 AU"
        }
    },
    "is_sentry_object": false
}